{
  "norad_id": 64713,
  "name": "STARLINK-34583",
  "history": [
    {
      "epoch": "2026-03-28T19:52:54.001920Z",
      "apogee_km": 573.4769834743565,
      "perigee_km": 570.4357616163988,
      "latitude_deg": 5.0600352599131706e-05,
      "longitude_deg": 141.85386335918804,
      "height_km": 574.4322943923559,
      "semi_major_axis_km": 6950.093372545378,
      "eccentricity": 0.00021879,
      "inclination_deg": 70.0005,
      "raan_deg": 266.3221,
      "arg_perigee_deg": 268.1442,
      "mean_anomaly_deg": 91.9467,
      "mean_motion_rev_day": 14.98362182
    },
    {
      "epoch": "2026-03-29T21:31:03.058752Z",
      "apogee_km": 573.7413116708676,
      "perigee_km": 570.387144558179,
      "latitude_deg": 1.3602240311043801e-05,
      "longitude_deg": 113.57008664288382,
      "height_km": 574.4041857055091,
      "semi_major_axis_km": 6950.201228114523,
      "eccentricity": 0.0002413,
      "inclination_deg": 70.0001,
      "raan_deg": 263.6289,
      "arg_perigee_deg": 272.9695,
      "mean_anomaly_deg": 87.1188,
      "mean_motion_rev_day": 14.98327304
    },
    {
      "epoch": "2026-03-29T21:31:03.059616Z",
      "apogee_km": 573.7416591809288,
      "perigee_km": 570.3867970481169,
      "latitude_deg": 1.8999256947649266e-05,
      "longitude_deg": 113.57008498664973,
      "height_km": 574.4041677012383,
      "semi_major_axis_km": 6950.201228114523,
      "eccentricity": 0.00024135,
      "inclination_deg": 70.0001,
      "raan_deg": 263.6289,
      "arg_perigee_deg": 272.9695,
      "mean_anomaly_deg": 87.1188,
      "mean_motion_rev_day": 14.98327304
    },
    {
      "epoch": "2026-03-30T13:32:24.265536Z",
      "apogee_km": 573.8428822096021,
      "perigee_km": 570.3107835397341,
      "latitude_deg": -6.708289861021699e-05,
      "longitude_deg": -129.10962651160597,
      "height_km": 574.3010603926062,
      "semi_major_axis_km": 6950.213832874668,
      "eccentricity": 0.0002541,
      "inclination_deg": 69.9998,
      "raan_deg": 261.9456,
      "arg_perigee_deg": 276.5906,
      "mean_anomaly_deg": 83.4963,
      "mean_motion_rev_day": 14.98323228
    },
    {
      "epoch": "2026-03-30T21:33:04.766976Z",
      "apogee_km": 573.7818583559192,
      "perigee_km": 570.3363681347391,
      "latitude_deg": 4.9105049350201495e-05,
      "longitude_deg": 109.55084956956328,
      "height_km": 574.3063400707687,
      "semi_major_axis_km": 6950.196113245329,
      "eccentricity": 0.00024787,
      "inclination_deg": 69.9998,
      "raan_deg": 261.1038,
      "arg_perigee_deg": 275.9852,
      "mean_anomaly_deg": 84.1025,
      "mean_motion_rev_day": 14.98328958
    },
    {
      "epoch": "2026-03-31T10:22:09.447456Z",
      "apogee_km": 573.841179229049,
      "perigee_km": 570.2840670619235,
      "latitude_deg": -4.272188452069322e-06,
      "longitude_deg": -84.59158621891339,
      "height_km": 574.2660242787531,
      "semi_major_axis_km": 6950.199623145486,
      "eccentricity": 0.0002559,
      "inclination_deg": 69.9998,
      "raan_deg": 259.7573,
      "arg_perigee_deg": 277.2202,
      "mean_anomaly_deg": 82.8666,
      "mean_motion_rev_day": 14.98327823
    },
    {
      "epoch": "2026-04-01T16:48:42.461280Z",
      "apogee_km": 573.8245832481034,
      "perigee_km": 570.2299582872629,
      "latitude_deg": 1.2898390835218175e-05,
      "longitude_deg": 174.322234849875,
      "height_km": 574.2341671776991,
      "semi_major_axis_km": 6950.164270767683,
      "eccentricity": 0.0002586,
      "inclination_deg": 69.9999,
      "raan_deg": 256.5589,
      "arg_perigee_deg": 277.0337,
      "mean_anomaly_deg": 83.0528,
      "mean_motion_rev_day": 14.98339255
    },
    {
      "epoch": "2026-04-02T16:50:43.327968Z",
      "apogee_km": 573.7199226098692,
      "perigee_km": 570.3476997322887,
      "latitude_deg": 2.993068076489671e-05,
      "longitude_deg": 170.30650686191692,
      "height_km": 574.223735221965,
      "semi_major_axis_km": 6950.170811171079,
      "eccentricity": 0.0002426,
      "inclination_deg": 69.9959,
      "raan_deg": 254.0338,
      "arg_perigee_deg": 278.0663,
      "mean_anomaly_deg": 82.0221,
      "mean_motion_rev_day": 14.9833714
    },
    {
      "epoch": "2026-04-02T16:50:43.328832Z",
      "apogee_km": 573.7199226098692,
      "perigee_km": 570.3476997322887,
      "latitude_deg": 2.993068076321877e-05,
      "longitude_deg": 170.30650325205985,
      "height_km": 574.223735221967,
      "semi_major_axis_km": 6950.170811171079,
      "eccentricity": 0.0002426,
      "inclination_deg": 69.9959,
      "raan_deg": 254.0338,
      "arg_perigee_deg": 278.0663,
      "mean_anomaly_deg": 82.0221,
      "mean_motion_rev_day": 14.9833714
    },
    {
      "epoch": "2026-04-03T20:05:00.358944Z",
      "apogee_km": 573.9630123546958,
      "perigee_km": 570.087601852254,
      "latitude_deg": 7.799893640734933e-05,
      "longitude_deg": 117.75723445643536,
      "height_km": 574.2545227958399,
      "semi_major_axis_km": 6950.162307103475,
      "eccentricity": 0.0002788,
      "inclination_deg": 70.0012,
      "raan_deg": 251.1741,
      "arg_perigee_deg": 275.867,
      "mean_anomaly_deg": 84.2172,
      "mean_motion_rev_day": 14.9833989
    }
  ]
}